{
  "type": "FeatureCollection",
  "features": [
    {
      "type": "Feature",
      "properties": {
        "norad_id": 32376,
        "name": "COSMO-SKYMED 2",
        "group": "resource",
        "lat": -14.24246599784426,
        "lon": -0.4592568306462321,
        "alt_km": 627.5312093890725,
        "timestamp": "2025-12-26T10:30:49.915934+00:00",
        "meta_object_name": "COSMO-SKYMED 2",
        "meta_object_id": "2007-059A",
        "meta_epoch": "2025-12-26T04:46:46.153056",
        "meta_mean_motion": 14.82158841,
        "meta_eccentricity": 0.0001301,
        "meta_inclination": 97.8806,
        "meta_ra_of_asc_node": 181.3203,
        "meta_arg_of_pericenter": 83.2337,
        "meta_mean_anomaly": 276.9024,
        "meta_ephemeris_type": 0,
        "meta_classification_type": "U",
        "meta_norad_cat_id": 32376,
        "meta_element_set_no": 999,
        "meta_rev_at_epoch": 97637,
        "meta_bstar": 7.4302e-05,
        "meta_mean_motion_dot": 5.39e-06,
        "meta_mean_motion_ddot": 0,
        "tle_line1": "1 32376U 07059A   25360.19914529  .00000539  00000+0  74302-4 0  9994",
        "tle_line2": "2 32376  97.8806 181.3203 0001301  83.2337 276.9024 14.82158841976374"
      },
      "geometry": {
        "type": "Point",
        "coordinates": [
          -0.4592568306462321,
          -14.24246599784426
        ]
      }
    },
    {
      "type": "Feature",
      "properties": {
        "norad_id": 32382,
        "name": "RADARSAT-2",
        "group": "resource",
        "lat": 80.16726259120165,
        "lon": -114.58690620584815,
        "alt_km": 783.5586136340053,
        "timestamp": "2025-12-26T10:30:49.915944+00:00",
        "meta_object_name": "RADARSAT-2",
        "meta_object_id": "2007-061A",
        "meta_epoch": "2025-12-26T05:02:03.738336",
        "meta_mean_motion": 14.2998578,
        "meta_eccentricity": 0.0001139,
        "meta_inclination": 98.5799,
        "meta_ra_of_asc_node": 4.6039,
        "meta_arg_of_pericenter": 84.8913,
        "meta_mean_anomaly": 275.2399,
        "meta_ephemeris_type": 0,
        "meta_classification_type": "U",
        "meta_norad_cat_id": 32382,
        "meta_element_set_no": 999,
        "meta_rev_at_epoch": 94123,
        "meta_bstar": 0.0001127,
        "meta_mean_motion_dot": 2.47e-06,
        "meta_mean_motion_ddot": 0,
        "tle_line1": "1 32382U 07061A   25360.20976549  .00000247  00000+0  11270-3 0  9996",
        "tle_line2": "2 32382  98.5799   4.6039 0001139  84.8913 275.2399 14.29985780941235"
      },
      "geometry": {
        "type": "Point",
        "coordinates": [
          -114.58690620584815,
          80.16726259120165
        ]
      }
    },
    {
      "type": "Feature",
      "properties": {
        "norad_id": 32783,
        "name": "CARTOSAT-2A",
        "group": "resource",
        "lat": 3.9792400193768174,
        "lon": -129.62231853070614,
        "alt_km": 641.2317120495545,
        "timestamp": "2025-12-26T10:30:49.915954+00:00",
        "meta_object_name": "CARTOSAT-2A",
        "meta_object_id": "2008-021A",
        "meta_epoch": "2025-12-26T04:50:57.162336",
        "meta_mean_motion": 14.78954977,
        "meta_eccentricity": 0.0010916,
        "meta_inclination": 97.7908,
        "meta_ra_of_asc_node": 49.6034,
        "meta_arg_of_pericenter": 319.7393,
        "meta_mean_anomaly": 40.3009,
        "meta_ephemeris_type": 0,
        "meta_classification_type": "U",
        "meta_norad_cat_id": 32783,
        "meta_element_set_no": 999,
        "meta_rev_at_epoch": 95323,
        "meta_bstar": 8.9725e-05,
        "meta_mean_motion_dot": 6.12e-06,
        "meta_mean_motion_ddot": 0,
        "tle_line1": "1 32783U 08021A   25360.20205049  .00000612  00000+0  89725-4 0  9995",
        "tle_line2": "2 32783  97.7908  49.6034 0010916 319.7393  40.3009 14.78954977953232"
      },
      "geometry": {
        "type": "Point",
        "coordinates": [
          -129.62231853070614,
          3.9792400193768174
        ]
      }
    },
    {
      "type": "Feature",
      "properties": {
        "norad_id": 33320,
        "name": "HUANJING 1A (HJ-1A)",
        "group": "resource",
        "lat": -78.19543012858382,
        "lon": 128.10735995462545,
        "alt_km": 625.7206425900204,
        "timestamp": "2025-12-26T10:30:49.915965+00:00",
        "meta_object_name": "HUANJING 1A (HJ-1A)",
        "meta_object_id": "2008-041A",
        "meta_epoch": "2025-12-26T04:28:59.352384",
        "meta_mean_motion": 14.83435533,
        "meta_eccentricity": 0.0019119,
        "meta_inclination": 97.6552,
        "meta_ra_of_asc_node": 347.9242,
        "meta_arg_of_pericenter": 351.3642,
        "meta_mean_anomaly": 8.724,
        "meta_ephemeris_type": 0,
        "meta_classification_type": "U",
        "meta_norad_cat_id": 33320,
        "meta_element_set_no": 999,
        "meta_rev_at_epoch": 93275,
        "meta_bstar": 0.00023251,
        "meta_mean_motion_dot": 1.864e-05,
        "meta_mean_motion_ddot": 0,
        "tle_line1": "1 33320U 08041A   25360.18679806  .00001864  00000+0  23251-3 0  9999",
        "tle_line2": "2 33320  97.6552 347.9242 0019119 351.3642   8.7240 14.83435533932759"
      },
      "geometry": {
        "type": "Point",
        "coordinates": [
          128.10735995462545,
          -78.19543012858382
        ]
      }
    },
    {
      "type": "Feature",
      "properties": {
        "norad_id": 33321,
        "name": "HUANJING 1B (HJ-1B)",
        "group": "resource",
        "lat": 81.24198697644992,
        "lon": -127.5511440972947,
        "alt_km": 600.3946601454682,
        "timestamp": "2025-12-26T10:30:49.915975+00:00",
        "meta_object_name": "HUANJING 1B (HJ-1B)",
        "meta_object_id": "2008-041B",
        "meta_epoch": "2025-12-26T05:14:04.570080",
        "meta_mean_motion": 14.82859169,
        "meta_eccentricity": 0.0037683,
        "meta_inclination": 97.641,
        "meta_ra_of_asc_node": 351.6158,
        "meta_arg_of_pericenter": 33.0581,
        "meta_mean_anomaly": 327.2977,
        "meta_ephemeris_type": 0,
        "meta_classification_type": "U",
        "meta_norad_cat_id": 33321,
        "meta_element_set_no": 999,
        "meta_rev_at_epoch": 93277,
        "meta_bstar": 0.00027536,
        "meta_mean_motion_dot": 2.206e-05,
        "meta_mean_motion_ddot": 0,
        "tle_line1": "1 33321U 08041B   25360.21810845  .00002206  00000+0  27536-3 0  9995",
        "tle_line2": "2 33321  97.6410 351.6158 0037683  33.0581 327.2977 14.82859169932775"
      },
      "geometry": {
        "type": "Point",
        "coordinates": [
          -127.5511440972947,
          81.24198697644992
        ]
      }
    },
    {
      "type": "Feature",
      "properties": {
        "norad_id": 33331,
        "name": "GEOEYE 1",
        "group": "resource",
        "lat": -81.78343057786887,
        "lon": 169.97834241935382,
        "alt_km": 683.7484195080915,
        "timestamp": "2025-12-26T10:30:49.915986+00:00",
        "meta_object_name": "GEOEYE 1",
        "meta_object_id": "2008-042A",
        "meta_epoch": "2025-12-26T02:43:55.807104",
        "meta_mean_motion": 14.64717692,
        "meta_eccentricity": 0.0003049,
        "meta_inclination": 98.1236,
        "meta_ra_of_asc_node": 71.2251,
        "meta_arg_of_pericenter": 227.1218,
        "meta_mean_anomaly": 132.9729,
        "meta_ephemeris_type": 0,
        "meta_classification_type": "U",
        "meta_norad_cat_id": 33331,
        "meta_element_set_no": 999,
        "meta_rev_at_epoch": 92481,
        "meta_bstar": 0.00011804,
        "meta_mean_motion_dot": 5.81e-06,
        "meta_mean_motion_ddot": 0,
        "tle_line1": "1 33331U 08042A   25360.11384036  .00000581  00000+0  11804-3 0  9999",
        "tle_line2": "2 33331  98.1236  71.2251 0003049 227.1218 132.9729 14.64717692924815"
      },
      "geometry": {
        "type": "Point",
        "coordinates": [
          169.97834241935382,
          -81.78343057786887
        ]
      }
    },
    {
      "type": "Feature",
      "properties": {
        "norad_id": 33396,
        "name": "THEOS",
        "group": "resource",
        "lat": 81.22255659938538,
        "lon": -19.91821241673057,
        "alt_km": 816.7040361912068,
        "timestamp": "2025-12-26T10:30:49.915997+00:00",
        "meta_object_name": "THEOS",
        "meta_object_id": "2008-049A",
        "meta_epoch": "2025-12-26T03:20:10.735296",
        "meta_mean_motion": 14.20099988,
        "meta_eccentricity": 0.0001189,
        "meta_inclination": 98.5844,
        "meta_ra_of_asc_node": 57.8319,
        "meta_arg_of_pericenter": 93.8745,
        "meta_mean_anomaly": 266.2567,
        "meta_ephemeris_type": 0,
        "meta_classification_type": "U",
        "meta_norad_cat_id": 33396,
        "meta_element_set_no": 999,
        "meta_rev_at_epoch": 89340,
        "meta_bstar": 0.00012087,
        "meta_mean_motion_dot": 2.15e-06,
        "meta_mean_motion_ddot": 0,
        "tle_line1": "1 33396U 08049A   25360.13901314  .00000215  00000+0  12087-3 0  9991",
        "tle_line2": "2 33396  98.5844  57.8319 0001189  93.8745 266.2567 14.20099988893400"
      },
      "geometry": {
        "type": "Point",
        "coordinates": [
          -19.91821241673057,
          81.22255659938538
        ]
      }
    }
  ]
}